******** Week 940 almanac for PRN-01 ********
ID:                         01
Health:                     000
Eccentricity:               4.0292739868E-004
Time of Applicability(s):  430080.0000
Orbital Inclination(rad):   0.0277075280
Rate of Right Ascen(r/s):   1.8743637900E-009
SQRT(A)  (m 1/2):           6493.504395
Right Ascen at Week(rad):  -5.8985943000E-001
Argument of Perigee(rad):   3.099896914
Mean Anom(rad):            -4.0872574000E-002
Af0(s):                     8.8214870000E-004
Af1(s/s):                   0.0000000000E+000
week:                        940

******** Week 940 almanac for PRN-10 ********
ID:                         10
Health:                     000
Eccentricity:               9.3293190002E-003
Time of Applicability(s):  430080.0000
Orbital Inclination(rad):  -0.0816245558
Rate of Right Ascen(r/s):  -2.2058061700E-009
SQRT(A)  (m 1/2):           6493.051270
Right Ascen at Week(rad):   3.0784286730E+000
Argument of Perigee(rad):  -2.437767364
Mean Anom(rad):             9.4819412200E-001
Af0(s):                     1.2969970000E-004
Af1(s/s):                  -1.4551900000E-011
week:                        940

******** Week 940 almanac for PRN-11 ********
ID:                         11
Health:                     000
Eccentricity:               2.2339820862E-003
Time of Applicability(s):  385024.0000
Orbital Inclination(rad):   0.0426458643
Rate of Right Ascen(r/s):  -6.4459827900E-009
SQRT(A)  (m 1/2):           5282.600098
Right Ascen at Week(rad):  -2.2948438720E+000
Argument of Perigee(rad):  -1.643248831
Mean Anom(rad):            -9.8319705000E-002
Af0(s):                     3.5285950000E-004
Af1(s/s):                   1.8189900000E-011
week:                        940

******** Week 940 almanac for PRN-12 ********
ID:                         12
Health:                     000
Eccentricity:               1.3351440430E-003
Time of Applicability(s):  376832.0000
Orbital Inclination(rad):   0.0410699388
Rate of Right Ascen(r/s):  -6.4688408800E-009
SQRT(A)  (m 1/2):           5282.592773
Right Ascen at Week(rad):  -2.3072928600E+000
Argument of Perigee(rad):  -1.548431516
Mean Anom(rad):            -4.9211084900E-001
Af0(s):                     7.9917910000E-004
Af1(s/s):                  -1.0913900000E-011
week:                        940

******** Week 940 almanac for PRN-13 ********
ID:                         13
Health:                     000
Eccentricity:               4.8785209656E-003
Time of Applicability(s):  430080.0000
Orbital Inclination(rad):   0.0858549872
Rate of Right Ascen(r/s):  -2.9258361600E-009
SQRT(A)  (m 1/2):           6493.696289
Right Ascen at Week(rad):  -1.0310474350E+000
Argument of Perigee(rad):  -2.373205348
Mean Anom(rad):            -1.3002090070E+000
Af0(s):                     4.0626530000E-004
Af1(s/s):                   3.6379800000E-012
week:                        940

******** Week 940 almanac for PRN-14 ********
ID:                         14
Health:                     000
Eccentricity:               1.0981559753E-003
Time of Applicability(s):  393216.0000
Orbital Inclination(rad):   0.0316383538
Rate of Right Ascen(r/s):  -6.8688575400E-009
SQRT(A)  (m 1/2):           5282.591797
Right Ascen at Week(rad):  -2.3721986700E-001
Argument of Perigee(rad):  -0.390830666
Mean Anom(rad):            -2.3150863520E+000
Af0(s):                    -5.6266780000E-005
Af1(s/s):                   8.3673500000E-011
week:                        940

******** Week 940 almanac for PRN-15 ********
ID:                         15
Health:                     000
Eccentricity:               2.1969318390E-002
Time of Applicability(s):  421888.0000
Orbital Inclination(rad):  -0.1488680418
Rate of Right Ascen(r/s):  -1.2090789300E-007
SQRT(A)  (m 1/2):           5704.388184
Right Ascen at Week(rad):   3.0563582250E+000
Argument of Perigee(rad):  -1.414647868
Mean Anom(rad):             2.1552302740E+000
Af0(s):                    -9.0217590000E-004
Af1(s/s):                  -1.3060300000E-009
week:                        940

******** Week 940 almanac for PRN-16 ********
ID:                         16
Health:                     000
Eccentricity:               6.7543983459E-003
Time of Applicability(s):  430080.0000
Orbital Inclination(rad):   0.0193844838
Rate of Right Ascen(r/s):  -1.6343537900E-009
SQRT(A)  (m 1/2):           6492.793945
Right Ascen at Week(rad):   1.1288057540E+000
Argument of Perigee(rad):  -2.279953098
Mean Anom(rad):             2.9981826770E+000
Af0(s):                    -2.7656560000E-004
Af1(s/s):                  -2.1827900000E-011
week:                        940

******** Week 940 almanac for PRN-19 ********
ID:                         19
Health:                     000
Eccentricity:               8.2635879517E-004
Time of Applicability(s):  430080.0000
Orbital Inclination(rad):   0.0342449227
Rate of Right Ascen(r/s):  -6.9945770700E-009
SQRT(A)  (m 1/2):           5282.580566
Right Ascen at Week(rad):  -2.3612368500E-001
Argument of Perigee(rad):  -1.121811460
Mean Anom(rad):            -1.3958101600E-001
Af0(s):                    -9.3936920000E-004
Af1(s/s):                   3.6379800000E-012
week:                        940

******** Week 940 almanac for PRN-02 ********
ID:                         02
Health:                     000
Eccentricity:               9.4461441040E-004
Time of Applicability(s):  430080.0000
Orbital Inclination(rad):   0.0381218194
Rate of Right Ascen(r/s):   2.0457995000E-009
SQRT(A)  (m 1/2):           6493.536133
Right Ascen at Week(rad):  -4.3384729200E-001
Argument of Perigee(rad):  -1.221179410
Mean Anom(rad):             3.0661826670E+000
Af0(s):                     3.3283230000E-004
Af1(s/s):                   3.2741800000E-011
week:                        940

******** Week 940 almanac for PRN-20 ********
ID:                         20
Health:                     000
Eccentricity:               6.0462951660E-004
Time of Applicability(s):  430080.0000
Orbital Inclination(rad):   0.0342329384
Rate of Right Ascen(r/s):  -6.9831480200E-009
SQRT(A)  (m 1/2):           5282.583008
Right Ascen at Week(rad):  -2.3549825900E-001
Argument of Perigee(rad):  -0.604022537
Mean Anom(rad):             8.1276264000E-002
Af0(s):                    -5.6266780000E-005
Af1(s/s):                  -3.6379800000E-011
week:                        940

******** Week 940 almanac for PRN-21 ********
ID:                         21
Health:                     000
Eccentricity:               5.9127807617E-004
Time of Applicability(s):  430080.0000
Orbital Inclination(rad):   0.0335198771
Rate of Right Ascen(r/s):  -6.9945770700E-009
SQRT(A)  (m 1/2):           5282.579590
Right Ascen at Week(rad):  -2.3440207600E-001
Argument of Perigee(rad):  -0.873141790
Mean Anom(rad):            -1.9633017880E+000
Af0(s):                    -9.6416470000E-004
Af1(s/s):                   0.0000000000E+000
week:                        940

******** Week 940 almanac for PRN-22 ********
ID:                         22
Health:                     000
Eccentricity:               4.0054321289E-004
Time of Applicability(s):  430080.0000
Orbital Inclination(rad):   0.0335258692
Rate of Right Ascen(r/s):  -6.9945770700E-009
SQRT(A)  (m 1/2):           5282.581055
Right Ascen at Week(rad):  -2.3447697800E-001
Argument of Perigee(rad):   0.115239558
Mean Anom(rad):            -2.1712153570E+000
Af0(s):                    -1.5163420000E-004
Af1(s/s):                   1.4551900000E-011
week:                        940

******** Week 940 almanac for PRN-23 ********
ID:                         23
Health:                     000
Eccentricity:               2.5320053101E-004
Time of Applicability(s):  430080.0000
Orbital Inclination(rad):   0.0021691447
Rate of Right Ascen(r/s):  -7.0631513500E-009
SQRT(A)  (m 1/2):           5282.587402
Right Ascen at Week(rad):   1.8579342360E+000
Argument of Perigee(rad):   0.850368392
Mean Anom(rad):            -1.7661953690E+000
Af0(s):                    -7.9154970000E-004
Af1(s/s):                   3.6379800000E-012
week:                        940

******** Week 940 almanac for PRN-24 ********
ID:                         24
Health:                     000
Eccentricity:               8.7356567383E-004
Time of Applicability(s):  430080.0000
Orbital Inclination(rad):   0.0021571605
Rate of Right Ascen(r/s):  -7.0631513500E-009
SQRT(A)  (m 1/2):           5282.578613
Right Ascen at Week(rad):   1.8577537240E+000
Argument of Perigee(rad):   0.883754944
Mean Anom(rad):            -2.3716069500E-001
Af0(s):                     7.8105930000E-004
Af1(s/s):                   3.6379800000E-011
week:                        940

******** Week 940 almanac for PRN-25 ********
ID:                         25
Health:                     000
Eccentricity:               6.2561035156E-004
Time of Applicability(s):  430080.0000
Orbital Inclination(rad):   0.0036611807
Rate of Right Ascen(r/s):  -7.0402932600E-009
SQRT(A)  (m 1/2):           5282.562012
Right Ascen at Week(rad):   1.8338721590E+000
Argument of Perigee(rad):   0.812830429
Mean Anom(rad):            -9.7337784700E-001
Af0(s):                     2.9945370000E-004
Af1(s/s):                   1.0913900000E-011
week:                        940

******** Week 940 almanac for PRN-26 ********
ID:                         26
Health:                     000
Eccentricity:               9.5081329346E-004
Time of Applicability(s):  430080.0000
Orbital Inclination(rad):   0.0037091176
Rate of Right Ascen(r/s):  -7.0402932600E-009
SQRT(A)  (m 1/2):           5282.561035
Right Ascen at Week(rad):   1.8344736180E+000
Argument of Perigee(rad):   0.742748554
Mean Anom(rad):             6.6332347800E-001
Af0(s):                    -2.3365020000E-004
Af1(s/s):                  -3.6379800000E-012
week:                        940

